{
  "type": "Feature",
  "geometry": {
    "type": "Polygon",
    "coordinates": [
      [
        [
          -77.03574573205704,
          48.68623628011956
        ],
        [
          -76.80103702604727,
          48.704599800881944
        ],
        [
          -76.8284868746353,
          48.86001834183081
        ],
        [
          -77.06395707135641,
          48.84159122217243
        ],
        [
          -77.03574573205704,
          48.68623628011956
        ]
      ]
    ]
  },
  "properties": {
    "candidate_id": "aoi_30k_g094",
    "selection_basis": "Ranked by supported fire-year count, temporal span, period coverage, harvest-age diversity, sample size, and compactness.",
    "actual_geodesic_area_ha": 30277.84,
    "supported_fire_years": [
      2005,
      2012,
      2023
    ],
    "supported_probable_harvest_years": [
      2001,
      2002,
      2003,
      2004,
      2005,
      2006,
      2007,
      2009,
      2012,
      2013,
      2014,
      2016,
      2017,
      2018,
      2023,
      2024
    ],
    "minimum_support_pixels": 100
  }
}