{
"type": "FeatureCollection",
"name": "recommended_study_extent",
"crs": { "type": "name", "properties": { "name": "urn:ogc:def:crs:EPSG::4269" } },
"features": [
{ "type": "Feature", "properties": { "name": "lebel_recovery_study_extent_100km", "anchor": "Lebel-sur-Quevillon", "radius_km": 100, "area_ha_epsg_32198": 3136548.4905459387, "anchor_lon": -76.976052, "anchor_lat": 49.052083, "anchor_source": "Natural Resources Canada Canadian Geographical Names Database, key EGYQT; provider Quebec-Commission de Toponymie." }, "geometry": { "type": "Polygon", "coordinates": [ [ [ -75.607874080019499, 49.150295117241463 ], [ -75.601096984078268, 49.061720803093493 ], [ -75.607563938381901, 48.973144941732862 ], [ -75.627138683956971, 48.885418302941716 ], [ -75.659562060876425, 48.799378564534877 ], [ -75.704457138622303, 48.715842554639764 ], [ -75.761335209503173, 48.63559886544715 ], [ -75.829602507618986, 48.55940088887295 ], [ -75.908567524649399, 48.487960315496252 ], [ -75.997448805063058, 48.421941129758295 ], [ -76.095383116398168, 48.361954126878778 ], [ -76.201433904297588, 48.308551970377152 ], [ -76.314599956322411, 48.262224803531481 ], [ -76.433824212628849, 48.223396423578819 ], [ -76.558002674878068, 48.192421023927942 ], [ -76.685993376852778, 48.169580507056807 ], [ -76.816625390851812, 48.155082369007694 ], [ -76.948707852774803, 48.149058155361381 ], [ -77.081038995707161, 48.151562488127425 ], [ -77.212415186638012, 48.162572662988325 ], [ -77.341639963606781, 48.18198881661656 ], [ -77.4675330710308, 48.20963466418479 ], [ -77.588939489212237, 48.245258807540161 ], [ -77.704738450082957, 48.288536614650191 ], [ -77.813852425192664, 48.339072670685582 ], [ -77.915256063887526, 48.396403800333523 ], [ -78.007985049727807, 48.460002659492005 ], [ -78.091144831676687, 48.529281892255085 ], [ -78.163919173750429, 48.603598845963013 ], [ -78.22557845302488, 48.682260832977526 ], [ -78.275487621602252, 48.764530922714016 ], [ -78.313113733905425, 48.849634241306994 ], [ -78.3380329271221, 48.936764749143876 ], [ -78.34993673048983, 49.025092458457337 ], [ -78.348637569181037, 49.113771044355545 ], [ -78.334073321641313, 49.201945793281482 ], [ -78.306310786182081, 49.288761823174035 ], [ -78.265547914219113, 49.373372499847378 ], [ -78.212114674465525, 49.454947964657499 ], [ -78.146472425164106, 49.532683679760126 ], [ -78.069211690384421, 49.605808889590371 ], [ -77.981048261543194, 49.673594891015604 ], [ -77.882817576331831, 49.735363000331461 ], [ -77.775467363490179, 49.790492103244617 ], [ -77.660048582320982, 49.838425674520877 ], [ -77.537704729116001, 49.878678157295909 ], [ -77.409659627081666, 49.910840598269267 ], [ -77.27720386001306, 49.934585444136204 ], [ -77.141680050858767, 49.949670416530637 ], [ -77.004467222454309, 49.955941397206992 ], [ -76.866964507232581, 49.953334271797758 ], [ -76.730574494095876, 49.941875698763681 ], [ -76.596686512695385, 49.92168278952996 ], [ -76.466660157456872, 49.892961705640303 ], [ -76.341809345696149, 49.856005198408617 ], [ -76.223387186525684, 49.811189135352784 ], [ -76.11257191092237, 49.758968075060061 ], [ -76.010454079709206, 49.699869967529345 ], [ -75.918025247038699, 49.63449007004013 ], [ -75.836168214202019, 49.563484178903771 ], [ -75.765648964244392, 49.487561284884961 ], [ -75.707110323900935, 49.407475764591261 ], [ -75.661067357561663, 49.32401922179109 ], [ -75.627904459838277, 49.238012091619765 ], [ -75.607874080019499, 49.150295117241463 ] ] ] } }
]
}
