{
  "type": "FeatureCollection",
  "features": [
    {
      "type": "Feature",
      "properties": {
        "name": "Abitibi analysis AOI",
        "source": "src/zones.py get_abitibi_analysis_zone()",
        "area_ha_gee": 10009.5,
        "description": "~10,000 ha managed boreal landscape in Abitibi-Temiscamingue, Quebec"
      },
      "geometry": {
        "type": "Polygon",
        "coordinates": [
          [
            [-79.61448860036347, 48.32451136817797],
            [-79.47908860036347, 48.32451136817797],
            [-79.47908860036347, 48.414511368177976],
            [-79.61448860036347, 48.414511368177976],
            [-79.61448860036347, 48.32451136817797]
          ]
        ]
      }
    }
  ]
}
